LANDSAT 9               
1 49260U 21088A   24077.77218239  .00000452  00000+0  11023-3 0  9999
2 49260  98.1951 148.9085 0001440  94.6590 265.4773 14.57114015131382
